start=new Date('2022-01-01T00:00:00.000Z').valueOf();
sats=[{"PERIAPSIS":"546.348","RA_OF_ASC_NODE":"96.2492","CENTER_NAME":"EARTH","OBJECT_TYPE":"PAYLOAD","ARG_OF_PERICENTER":"88.1796","REF_FRAME":"TEME","SITE":"AFETR","INCLINATION":"53.0551","EPHEMERIS_TYPE":"0","CLASSIFICATION_TYPE":"U","ECCENTRICITY":"0.00013140","MEAN_MOTION_DDOT":"0.0000000000000","RCS_SIZE":"LARGE","FILE":"3255242","MEAN_MOTION":"15.06385433","MEAN_ELEMENT_THEORY":"SGP4","TLE_LINE2":"2 47657  53.0551  96.2492 0001314  88.1796 271.9344 15.06385433 49506","MEAN_MOTION_DOT":"-0.00000856","DECAY_DATE":null,"LAUNCH_DATE":"2021-02-16","NORAD_CAT_ID":"47657","OBJECT_NAME":"STARLINK-2041","APOAPSIS":"548.168","COUNTRY_CODE":"US","OBJECT_ID":"2021-012AP","ELEMENT_SET_NO":"999","MEAN_ANOMALY":"271.9344","REV_AT_EPOCH":"4950","SEMIMAJOR_AXIS":"6925.393","GP_ID":"192819074","TLE_LINE1":"1 47657U 21012AP  21365.53912891 -.00000856  00000-0 -38624-4 0  9998","BSTAR":"-0.00003862400000","PERIOD":"95.593","TIME_SYSTEM":"UTC","EPOCH":"2021-12-31T12:56:20.737824"},{"MEAN_ELEMENT_THEORY":"SGP4","TLE_LINE2":"2 47658  53.0550  96.2783 0001362  88.0117 272.1028 15.06392305 49528","DECAY_DATE":null,"LAUNCH_DATE":"2021-02-16","MEAN_MOTION_DOT":"0.00002213","NORAD_CAT_ID":"47658","OBJECT_NAME":"STARLINK-2042","APOAPSIS":"548.180","OBJECT_ID":"2021-012AQ","COUNTRY_CODE":"US","ELEMENT_SET_NO":"999","REV_AT_EPOCH":"4952","MEAN_ANOMALY":"272.1028","GP_ID":"192819324","TLE_LINE1":"1 47658U 21012AQ  21365.53174977  .00002213  00000-0  16747-3 0  9992","BSTAR":"0.00016747000000","SEMIMAJOR_AXIS":"6925.372","PERIOD":"95.593","TIME_SYSTEM":"UTC","EPOCH":"2021-12-31T12:45:43.180128","RA_OF_ASC_NODE":"96.2783","PERIAPSIS":"546.294","CENTER_NAME":"EARTH","OBJECT_TYPE":"PAYLOAD","REF_FRAME":"TEME","ARG_OF_PERICENTER":"88.0117","SITE":"AFETR","INCLINATION":"53.0550","EPHEMERIS_TYPE":"0","CLASSIFICATION_TYPE":"U","RCS_SIZE":"LARGE","MEAN_MOTION_DDOT":"0.0000000000000","ECCENTRICITY":"0.00013620","FILE":"3255242","MEAN_MOTION":"15.06392305"},{"MEAN_ANOMALY":"99.2198","REV_AT_EPOCH":"360","SEMIMAJOR_AXIS":"6925.308","TLE_LINE1":"1 47659U 21012AR  21365.58334491 -.00027675  00000-0 -18455-2 0  9995","BSTAR":"-0.00184550000000","GP_ID":"192819575","PERIOD":"95.591","TIME_SYSTEM":"UTC","EPOCH":"2021-12-31T14:00:01.000224","MEAN_ELEMENT_THEORY":"SGP4","TLE_LINE2":"2 47659  53.0519 336.0325 0002070  40.8158  99.2198 15.06413270  3609","DECAY_DATE":null,"MEAN_MOTION_DOT":"-0.00027675","LAUNCH_DATE":"2021-02-16","NORAD_CAT_ID":"47659","APOAPSIS":"548.606","OBJECT_NAME":"STARLINK-2043","COUNTRY_CODE":"US","OBJECT_ID":"2021-012AR","ELEMENT_SET_NO":"999","EPHEMERIS_TYPE":"0","CLASSIFICATION_TYPE":"U","ECCENTRICITY":"0.00020700","MEAN_MOTION_DDOT":"0.0000000000000","RCS_SIZE":"LARGE","FILE":"3255242","MEAN_MOTION":"15.06413270","RA_OF_ASC_NODE":"336.0325","PERIAPSIS":"545.739","CENTER_NAME":"EARTH","OBJECT_TYPE":"PAYLOAD","REF_FRAME":"TEME","ARG_OF_PERICENTER":"40.8158","SITE":"AFETR","INCLINATION":"53.0519"},{"RA_OF_ASC_NODE":"326.6502","PERIAPSIS":"498.453","CENTER_NAME":"EARTH","OBJECT_TYPE":"PAYLOAD","REF_FRAME":"TEME","ARG_OF_PERICENTER":"68.9920","SITE":"AFETR","INCLINATION":"53.0446","EPHEMERIS_TYPE":"0","CLASSIFICATION_TYPE":"U","ECCENTRICITY":"0.00015340","MEAN_MOTION_DDOT":"0.0000000000000","RCS_SIZE":"LARGE","FILE":"3255242","MEAN_MOTION":"15.22100535","MEAN_ELEMENT_THEORY":"SGP4","TLE_LINE2":"2 47660  53.0446 326.6502 0001534  68.9920 291.1240 15.22100535 51300","DECAY_DATE":null,"MEAN_MOTION_DOT":"-0.00182918","LAUNCH_DATE":"2021-02-16","NORAD_CAT_ID":"47660","OBJECT_NAME":"STARLINK-2044","APOAPSIS":"500.563","COUNTRY_CODE":"US","OBJECT_ID":"2021-012AS","ELEMENT_SET_NO":"999","MEAN_ANOMALY":"291.1240","REV_AT_EPOCH":"5130","SEMIMAJOR_AXIS":"6877.643","TLE_LINE1":"1 47660U 21012AS  21365.57156445 -.00182918  00000-0 -80704-2 0  9995","GP_ID":"192819813","BSTAR":"-0.00807040000000","PERIOD":"94.606","TIME_SYSTEM":"UTC","EPOCH":"2021-12-31T13:43:03.168480"},{"CENTER_NAME":"EARTH","PERIAPSIS":"546.162","RA_OF_ASC_NODE":"76.4247","SITE":"AFETR","INCLINATION":"53.0553","OBJECT_TYPE":"PAYLOAD","ARG_OF_PERICENTER":"88.6192","REF_FRAME":"TEME","EPHEMERIS_TYPE":"0","FILE":"3255242","MEAN_MOTION":"15.06386048","CLASSIFICATION_TYPE":"U","ECCENTRICITY":"0.00015800","MEAN_MOTION_DDOT":"0.0000000000000","RCS_SIZE":"LARGE","NORAD_CAT_ID":"47661","TLE_LINE2":"2 47661  53.0553  76.4247 0001580  88.6192 271.4978 15.06386048 49760","MEAN_ELEMENT_THEORY":"SGP4","MEAN_MOTION_DOT":"0.00000144","DECAY_DATE":null,"LAUNCH_DATE":"2021-02-16","COUNTRY_CODE":"US","OBJECT_ID":"2021-012AT","ELEMENT_SET_NO":"999","OBJECT_NAME":"STARLINK-2051","APOAPSIS":"548.351","SEMIMAJOR_AXIS":"6925.391","TLE_LINE1":"1 47661U 21012AT  21365.49674173  .00000144  00000-0  28571-4 0  9994","GP_ID":"192818574","BSTAR":"0.00002857100000","PERIOD":"95.593","MEAN_ANOMALY":"271.4978","REV_AT_EPOCH":"4976","EPOCH":"2021-12-31T11:55:18.485472","TIME_SYSTEM":"UTC"},{"MEAN_ANOMALY":"272.6205","REV_AT_EPOCH":"4978","PERIOD":"95.592","SEMIMAJOR_AXIS":"6925.361","TLE_LINE1":"1 47662U 21012AU  21365.47736724  .00003351  00000-0  24376-3 0  9995","BSTAR":"0.00024376000000","GP_ID":"192818824","TIME_SYSTEM":"UTC","EPOCH":"2021-12-31T11:27:24.529536","LAUNCH_DATE":"2021-02-16","DECAY_DATE":null,"MEAN_MOTION_DOT":"0.00003351","TLE_LINE2":"2 47662  53.0544  76.5223 0001485  87.4954 272.6205 15.06396065 49781","MEAN_ELEMENT_THEORY":"SGP4","NORAD_CAT_ID":"47662","APOAPSIS":"548.254","OBJECT_NAME":"STARLINK-2052","ELEMENT_SET_NO":"999","COUNTRY_CODE":"US","OBJECT_ID":"2021-012AU","EPHEMERIS_TYPE":"0","ECCENTRICITY":"0.00014850","MEAN_MOTION_DDOT":"0.0000000000000","RCS_SIZE":"LARGE","CLASSIFICATION_TYPE":"U","MEAN_MOTION":"15.06396065","FILE":"3255242","RA_OF_ASC_NODE":"76.5223","PERIAPSIS":"546.197","CENTER_NAME":"EARTH","ARG_OF_PERICENTER":"87.4954","REF_FRAME":"TEME","OBJECT_TYPE":"PAYLOAD","INCLINATION":"53.0544","SITE":"AFETR"},{"INCLINATION":"53.0562","SITE":"AFETR","ARG_OF_PERICENTER":"63.8790","REF_FRAME":"TEME","OBJECT_TYPE":"PAYLOAD","CENTER_NAME":"EARTH","PERIAPSIS":"546.006","RA_OF_ASC_NODE":"356.0389","MEAN_MOTION":"15.06411974","FILE":"3255242","MEAN_MOTION_DDOT":"0.0000000000000","ECCENTRICITY":"0.00016910","RCS_SIZE":"LARGE","CLASSIFICATION_TYPE":"U","EPHEMERIS_TYPE":"0","ELEMENT_SET_NO":"999","COUNTRY_CODE":"US","OBJECT_ID":"2021-012AV","APOAPSIS":"548.348","OBJECT_NAME":"STARLINK-2053","NORAD_CAT_ID":"47663","DECAY_DATE":null,"MEAN_MOTION_DOT":"-0.00021776","LAUNCH_DATE":"2021-02-16","TLE_LINE2":"2 47663  53.0562 356.0389 0001691  63.8790 331.2659 15.06411974  3609","MEAN_ELEMENT_THEORY":"SGP4","EPOCH":"2021-12-31T14:00:01.000224","TIME_SYSTEM":"UTC","PERIOD":"95.591","SEMIMAJOR_AXIS":"6925.312","TLE_LINE1":"1 47663U 21012AV  21365.58334491 -.00021776  00000-0 -14470-2 0  9999","BSTAR":"-0.00144700000000","GP_ID":"192820076","MEAN_ANOMALY":"331.2659","REV_AT_EPOCH":"360"},{"CENTER_NAME":"EARTH","RA_OF_ASC_NODE":"76.5235","PERIAPSIS":"546.319","INCLINATION":"53.0546","SITE":"AFETR","REF_FRAME":"TEME","ARG_OF_PERICENTER":"78.1575","OBJECT_TYPE":"PAYLOAD","EPHEMERIS_TYPE":"0","MEAN_MOTION":"15.06399128","FILE":"3255242","RCS_SIZE":"LARGE","MEAN_MOTION_DDOT":"0.0000000000000","ECCENTRICITY":"0.00012950","CLASSIFICATION_TYPE":"U","NORAD_CAT_ID":"47664","DECAY_DATE":null,"LAUNCH_DATE":"2021-02-16","MEAN_MOTION_DOT":"0.00000797","MEAN_ELEMENT_THEORY":"SGP4","TLE_LINE2":"2 47664  53.0546  76.5235 0001295  78.1575 281.9559 15.06399128 49781","ELEMENT_SET_NO":"999","OBJECT_ID":"2021-012AW","COUNTRY_CODE":"US","APOAPSIS":"548.113","OBJECT_NAME":"STARLINK-2054","PERIOD":"95.592","BSTAR":"0.00007239400000","TLE_LINE1":"1 47664U 21012AW  21365.47830608  .00000797  00000-0  72394-4 0  9998","GP_ID":"192820314","SEMIMAJOR_AXIS":"6925.351","REV_AT_EPOCH":"4978","MEAN_ANOMALY":"281.9559","EPOCH":"2021-12-31T11:28:45.645312","TIME_SYSTEM":"UTC"},{"NORAD_CAT_ID":"47665","MEAN_ELEMENT_THEORY":"SGP4","TLE_LINE2":"2 47665  53.0551  71.3192 0004619 133.3062 226.8313 15.06394151 49856","MEAN_MOTION_DOT":"0.00000304","DECAY_DATE":null,"LAUNCH_DATE":"2021-02-16","OBJECT_ID":"2021-012AX","COUNTRY_CODE":"US","ELEMENT_SET_NO":"999","OBJECT_NAME":"STARLINK-2056","APOAPSIS":"550.430","TLE_LINE1":"1 47665U 21012AX  21365.52022295  .00000304  00000-0  39409-4 0  9994","BSTAR":"0.00003940900000","GP_ID":"192819075","SEMIMAJOR_AXIS":"6925.366","PERIOD":"95.593","REV_AT_EPOCH":"4985","MEAN_ANOMALY":"226.8313","EPOCH":"2021-12-31T12:29:07.262880","TIME_SYSTEM":"UTC","CENTER_NAME":"EARTH","RA_OF_ASC_NODE":"71.3192","PERIAPSIS":"544.033","SITE":"AFETR","INCLINATION":"53.0551","OBJECT_TYPE":"PAYLOAD","ARG_OF_PERICENTER":"133.3062","REF_FRAME":"TEME","EPHEMERIS_TYPE":"0","FILE":"3255242","MEAN_MOTION":"15.06394151","CLASSIFICATION_TYPE":"U","RCS_SIZE":"LARGE","MEAN_MOTION_DDOT":"0.0000000000000","ECCENTRICITY":"0.00046190"},{"EPHEMERIS_TYPE":"0","CLASSIFICATION_TYPE":"U","RCS_SIZE":"MEDIUM","ECCENTRICITY":"0.00013370","MEAN_MOTION_DDOT":"0.0000000000000","FILE":"3255242","MEAN_MOTION":"15.06403285","PERIAPSIS":"546.278","RA_OF_ASC_NODE":"71.1768","CENTER_NAME":"EARTH","OBJECT_TYPE":"PAYLOAD","ARG_OF_PERICENTER":"89.5485","REF_FRAME":"TEME","SITE":"AFETR","INCLINATION":"53.0555","REV_AT_EPOCH":"4986","MEAN_ANOMALY":"270.5658","GP_ID":"192819325","TLE_LINE1":"1 47666U 21012AY  21365.55338315 -.00002428  00000-0 -14416-3 0  9992","BSTAR":"-0.00014416000000","SEMIMAJOR_AXIS":"6925.338","PERIOD":"95.592","TIME_SYSTEM":"UTC","EPOCH":"2021-12-31T13:16:52.304160","MEAN_ELEMENT_THEORY":"SGP4","TLE_LINE2":"2 47666  53.0555  71.1768 0001337  89.5485 270.5658 15.06403285 49861","MEAN_MOTION_DOT":"-0.00002428","DECAY_DATE":null,"LAUNCH_DATE":"2021-02-16","NORAD_CAT_ID":"47666","OBJECT_NAME":"STARLINK-2057","APOAPSIS":"548.129","OBJECT_ID":"2021-012AY","COUNTRY_CODE":"US","ELEMENT_SET_NO":"999"}];
